LEMUR-1                 
1 40044U 14033AL  26094.91957789  .00002987  00000+0  35016-3 0  9992
2 40044  97.7771 246.4084 0047561 319.7371  40.0325 14.84940563634599
LEMUR-2-GREENBERG       
1 42837U 17042N   26094.97583724  .00021127  00000+0  74928-3 0  9999
2 42837  97.3795 276.0731 0008065 261.5526  98.4800 15.29069820477197
LEMUR-2-ANDIS           
1 42838U 17042P   26095.02637232  .00024921  00000+0  80836-3 0  9991
2 42838  97.3676 276.0859 0008349 263.4008  96.6283 15.31928893477246
LEMUR-2-MONSON          
1 42839U 17042Q   26095.29063578  .00020262  00000+0  78888-3 0  9995
2 42839  97.4056 276.4572 0005829 245.9168 114.1461 15.26009395477041
LEMUR-2-FURIAUS         
1 42840U 17042R   26095.17472897  .00028569  00000+0  10554-2 0  9995
2 42840  97.3757 274.3997 0006822 322.3487  37.7274 15.27674191477052
LEMUR-2-PETERG          
1 42841U 17042S   26095.22638130  .00025772  00000+0  85908-3 0  9995
2 42841  97.3992 280.3034 0003415 227.5513 132.5440 15.31070073477260
LEMUR-2-DEMBITZ         
1 42842U 17042T   26095.26846201  .00023388  00000+0  85468-3 0  9992
2 42842  97.3817 277.4414 0005871 273.9129  86.1440 15.28079292477208
LEMUR-2-ZACHARY         
1 42845U 17042W   26094.97842707  .00046746  00000+0  10060-2 0  9997
2 42845  97.3638 285.3714 0003206 271.9742  88.1139 15.44488205477889
LEMUR-2-JIN-LUEN        
1 43182U 18014C   26095.29617983  .02048268  39698-2  21535-2 0  9994
2 43182  97.5375  28.4638 0010758 159.5657 200.6059 16.11283858449693
LEMUR-2-KADI            
1 43184U 18014E   26095.23380638  .00167383  00000+0  13338-2 0  9996
2 43184  97.4621  21.5585 0006380 123.2056 236.9819 15.70639509449542
LEMUR-2-AMANDA-SVANTE   
1 48269U 21034B   26095.14554765  .00036919  00000+0  12593-2 0  9997
2 48269  97.5792 171.7392 0004291 142.4616 217.6925 15.30247506269877
LEMUR-2-SPECIAL-K       
1 48273U 21034F   26095.22885120  .00103931  00000+0  18365-2 0  9995
2 48273  97.5677 177.7617 0002157 187.8438 172.2780 15.49969520270340
LEMUR-2-EMBRIONOVIS     
1 56970U 23084AQ  26094.35397944  .00027278  00000+0  78776-3 0  9992
2 56970  97.6184 235.8777 0008661 210.8767 149.1968 15.35603890156342
LEMUR-2-MANO            
1 57390U 23100E   26095.04248107  .00201176  00000+0  16107-2 0  9991
2 57390  99.4461 126.5031 0008599 189.3739 170.7358 15.70389943150600
LEMUR-2-DEVERILL-M-T    
1 57391U 23100F   26095.30248617  .00031364  00000+0  88377-3 0  9996
2 57391  99.4550 113.2346 0005426 284.6854  75.3781 15.36384396150042
LEMUR-2-BASS            
1 58259U 23174D   26095.20116151  .00022285  00000+0  54400-3 0  9999
2 58259  97.3853 179.0277 0008279  79.3692 280.8487 15.40833700134119
