[{"OBJECT_NAME":"LEMUR-1","OBJECT_ID":"2014-033AL","EPOCH":"2026-04-04T22:04:11.529696","MEAN_MOTION":14.84940563,"ECCENTRICITY":0.00475617,"INCLINATION":97.7771,"RA_OF_ASC_NODE":246.4084,"ARG_OF_PERICENTER":319.7371,"MEAN_ANOMALY":40.0325,"EPHEMERIS_TYPE":0,"CLASSIFICATION_TYPE":"U","NORAD_CAT_ID":40044,"ELEMENT_SET_NO":999,"REV_AT_EPOCH":63459,"BSTAR":0.00035016126,"MEAN_MOTION_DOT":2.987e-5,"MEAN_MOTION_DDOT":0},{"OBJECT_NAME":"LEMUR-2-GREENBERG","OBJECT_ID":"2017-042N","EPOCH":"2026-04-04T23:25:12.337536","MEAN_MOTION":15.2906982,"ECCENTRICITY":0.00080658,"INCLINATION":97.3795,"RA_OF_ASC_NODE":276.0731,"ARG_OF_PERICENTER":261.5526,"MEAN_ANOMALY":98.48,"EPHEMERIS_TYPE":0,"CLASSIFICATION_TYPE":"U","NORAD_CAT_ID":42837,"ELEMENT_SET_NO":999,"REV_AT_EPOCH":47719,"BSTAR":0.00074928462,"MEAN_MOTION_DOT":0.00021127,"MEAN_MOTION_DDOT":0},{"OBJECT_NAME":"LEMUR-2-ANDIS","OBJECT_ID":"2017-042P","EPOCH":"2026-04-05T00:37:58.568448","MEAN_MOTION":15.31928893,"ECCENTRICITY":0.00083497,"INCLINATION":97.3676,"RA_OF_ASC_NODE":276.0859,"ARG_OF_PERICENTER":263.4008,"MEAN_ANOMALY":96.6283,"EPHEMERIS_TYPE":0,"CLASSIFICATION_TYPE":"U","NORAD_CAT_ID":42838,"ELEMENT_SET_NO":999,"REV_AT_EPOCH":47724,"BSTAR":0.00080835812,"MEAN_MOTION_DOT":0.00024921,"MEAN_MOTION_DDOT":0},{"OBJECT_NAME":"LEMUR-2-MONSON","OBJECT_ID":"2017-042Q","EPOCH":"2026-04-05T06:58:30.931392","MEAN_MOTION":15.26009395,"ECCENTRICITY":0.00058296,"INCLINATION":97.4056,"RA_OF_ASC_NODE":276.4572,"ARG_OF_PERICENTER":245.9168,"MEAN_ANOMALY":114.1461,"EPHEMERIS_TYPE":0,"CLASSIFICATION_TYPE":"U","NORAD_CAT_ID":42839,"ELEMENT_SET_NO":999,"REV_AT_EPOCH":47704,"BSTAR":0.0007888751,"MEAN_MOTION_DOT":0.00020262,"MEAN_MOTION_DDOT":0},{"OBJECT_NAME":"LEMUR-2-FURIAUS","OBJECT_ID":"2017-042R","EPOCH":"2026-04-05T04:11:36.583008","MEAN_MOTION":15.27674191,"ECCENTRICITY":0.00068227,"INCLINATION":97.3757,"RA_OF_ASC_NODE":274.3997,"ARG_OF_PERICENTER":322.3487,"MEAN_ANOMALY":37.7274,"EPHEMERIS_TYPE":0,"CLASSIFICATION_TYPE":"U","NORAD_CAT_ID":42840,"ELEMENT_SET_NO":999,"REV_AT_EPOCH":47705,"BSTAR":0.0010554247,"MEAN_MOTION_DOT":0.00028569,"MEAN_MOTION_DDOT":0},{"OBJECT_NAME":"LEMUR-2-PETERG","OBJECT_ID":"2017-042S","EPOCH":"2026-04-05T05:25:59.344320","MEAN_MOTION":15.31070073,"ECCENTRICITY":0.00034151,"INCLINATION":97.3992,"RA_OF_ASC_NODE":280.3034,"ARG_OF_PERICENTER":227.5513,"MEAN_ANOMALY":132.544,"EPHEMERIS_TYPE":0,"CLASSIFICATION_TYPE":"U","NORAD_CAT_ID":42841,"ELEMENT_SET_NO":999,"REV_AT_EPOCH":47726,"BSTAR":0.00085908277,"MEAN_MOTION_DOT":0.00025772,"MEAN_MOTION_DDOT":0},{"OBJECT_NAME":"LEMUR-2-DEMBITZ","OBJECT_ID":"2017-042T","EPOCH":"2026-04-05T06:26:35.117664","MEAN_MOTION":15.28079292,"ECCENTRICITY":0.0005871,"INCLINATION":97.3817,"RA_OF_ASC_NODE":277.4414,"ARG_OF_PERICENTER":273.9129,"MEAN_ANOMALY":86.144,"EPHEMERIS_TYPE":0,"CLASSIFICATION_TYPE":"U","NORAD_CAT_ID":42842,"ELEMENT_SET_NO":999,"REV_AT_EPOCH":47720,"BSTAR":0.00085468018,"MEAN_MOTION_DOT":0.00023388,"MEAN_MOTION_DDOT":0},{"OBJECT_NAME":"LEMUR-2-ZACHARY","OBJECT_ID":"2017-042W","EPOCH":"2026-04-04T23:28:56.098848","MEAN_MOTION":15.44488205,"ECCENTRICITY":0.00032069,"INCLINATION":97.3638,"RA_OF_ASC_NODE":285.3714,"ARG_OF_PERICENTER":271.9742,"MEAN_ANOMALY":88.1139,"EPHEMERIS_TYPE":0,"CLASSIFICATION_TYPE":"U","NORAD_CAT_ID":42845,"ELEMENT_SET_NO":999,"REV_AT_EPOCH":47788,"BSTAR":0.0010059585,"MEAN_MOTION_DOT":0.00046746,"MEAN_MOTION_DDOT":0},{"OBJECT_NAME":"LEMUR-2-JIN-LUEN","OBJECT_ID":"2018-014C","EPOCH":"2026-04-05T07:06:29.937312","MEAN_MOTION":16.11283858,"ECCENTRICITY":0.00107582,"INCLINATION":97.5375,"RA_OF_ASC_NODE":28.4638,"ARG_OF_PERICENTER":159.5657,"MEAN_ANOMALY":200.6059,"EPHEMERIS_TYPE":0,"CLASSIFICATION_TYPE":"U","NORAD_CAT_ID":43182,"ELEMENT_SET_NO":999,"REV_AT_EPOCH":44969,"BSTAR":0.0021534545,"MEAN_MOTION_DOT":0.02048268,"MEAN_MOTION_DDOT":0.0039698086},{"OBJECT_NAME":"LEMUR-2-KADI","OBJECT_ID":"2018-014E","EPOCH":"2026-04-05T05:36:40.871232","MEAN_MOTION":15.70639509,"ECCENTRICITY":0.00063806,"INCLINATION":97.4621,"RA_OF_ASC_NODE":21.5585,"ARG_OF_PERICENTER":123.2056,"MEAN_ANOMALY":236.9819,"EPHEMERIS_TYPE":0,"CLASSIFICATION_TYPE":"U","NORAD_CAT_ID":43184,"ELEMENT_SET_NO":999,"REV_AT_EPOCH":44954,"BSTAR":0.0013338093,"MEAN_MOTION_DOT":0.00167383,"MEAN_MOTION_DDOT":0},{"OBJECT_NAME":"LEMUR-2-AMANDA-SVANTE","OBJECT_ID":"2021-034B","EPOCH":"2026-04-05T03:29:35.316960","MEAN_MOTION":15.30247506,"ECCENTRICITY":0.00042913,"INCLINATION":97.5792,"RA_OF_ASC_NODE":171.7392,"ARG_OF_PERICENTER":142.4616,"MEAN_ANOMALY":217.6925,"EPHEMERIS_TYPE":0,"CLASSIFICATION_TYPE":"U","NORAD_CAT_ID":48269,"ELEMENT_SET_NO":999,"REV_AT_EPOCH":26987,"BSTAR":0.001259257,"MEAN_MOTION_DOT":0.00036919,"MEAN_MOTION_DDOT":0},{"OBJECT_NAME":"LEMUR-2-SPECIAL-K","OBJECT_ID":"2021-034F","EPOCH":"2026-04-05T05:29:32.743680","MEAN_MOTION":15.4996952,"ECCENTRICITY":0.0002157,"INCLINATION":97.5677,"RA_OF_ASC_NODE":177.7617,"ARG_OF_PERICENTER":187.8438,"MEAN_ANOMALY":172.278,"EPHEMERIS_TYPE":0,"CLASSIFICATION_TYPE":"U","NORAD_CAT_ID":48273,"ELEMENT_SET_NO":999,"REV_AT_EPOCH":27034,"BSTAR":0.0018364815,"MEAN_MOTION_DOT":0.00103931,"MEAN_MOTION_DDOT":0},{"OBJECT_NAME":"LEMUR-2-EMBRIONOVIS","OBJECT_ID":"2023-084AQ","EPOCH":"2026-04-04T08:29:43.823616","MEAN_MOTION":15.3560389,"ECCENTRICITY":0.00086614,"INCLINATION":97.6184,"RA_OF_ASC_NODE":235.8777,"ARG_OF_PERICENTER":210.8767,"MEAN_ANOMALY":149.1968,"EPHEMERIS_TYPE":0,"CLASSIFICATION_TYPE":"U","NORAD_CAT_ID":56970,"ELEMENT_SET_NO":999,"REV_AT_EPOCH":15634,"BSTAR":0.00078776279,"MEAN_MOTION_DOT":0.00027278,"MEAN_MOTION_DDOT":0},{"OBJECT_NAME":"LEMUR-2-MANO","OBJECT_ID":"2023-100E","EPOCH":"2026-04-05T01:01:10.364448","MEAN_MOTION":15.70389943,"ECCENTRICITY":0.00085996,"INCLINATION":99.4461,"RA_OF_ASC_NODE":126.5031,"ARG_OF_PERICENTER":189.3739,"MEAN_ANOMALY":170.7358,"EPHEMERIS_TYPE":0,"CLASSIFICATION_TYPE":"U","NORAD_CAT_ID":57390,"ELEMENT_SET_NO":999,"REV_AT_EPOCH":15060,"BSTAR":0.0016106762,"MEAN_MOTION_DOT":0.00201176,"MEAN_MOTION_DDOT":0},{"OBJECT_NAME":"LEMUR-2-DEVERILL-M-T","OBJECT_ID":"2023-100F","EPOCH":"2026-04-05T07:15:34.805088","MEAN_MOTION":15.36384396,"ECCENTRICITY":0.00054269,"INCLINATION":99.455,"RA_OF_ASC_NODE":113.2346,"ARG_OF_PERICENTER":284.6854,"MEAN_ANOMALY":75.3781,"EPHEMERIS_TYPE":0,"CLASSIFICATION_TYPE":"U","NORAD_CAT_ID":57391,"ELEMENT_SET_NO":999,"REV_AT_EPOCH":15004,"BSTAR":0.00088377477,"MEAN_MOTION_DOT":0.00031364,"MEAN_MOTION_DDOT":0},{"OBJECT_NAME":"LEMUR-2-BASS","OBJECT_ID":"2023-174D","EPOCH":"2026-04-05T04:49:40.354464","MEAN_MOTION":15.408337,"ECCENTRICITY":0.00082797,"INCLINATION":97.3853,"RA_OF_ASC_NODE":179.0277,"ARG_OF_PERICENTER":79.3692,"MEAN_ANOMALY":280.8487,"EPHEMERIS_TYPE":0,"CLASSIFICATION_TYPE":"U","NORAD_CAT_ID":58259,"ELEMENT_SET_NO":999,"REV_AT_EPOCH":13411,"BSTAR":0.00054400121,"MEAN_MOTION_DOT":0.00022285,"MEAN_MOTION_DDOT":0}]
